{
    "links": {
        "self": "http://www.neowsapp.com/rest/v1/neo/3879538?api_key=iIulBulltgU6a56xZRHN4H3l9WmuAYTsLGpBGhQ2"
    },
    "id": "3879538",
    "neo_reference_id": "3879538",
    "name": "(2019 UU4)",
    "designation": "2019 UU4",
    "nasa_jpl_url": "http://ssd.jpl.nasa.gov/sbdb.cgi?sstr=3879538",
    "absolute_magnitude_h": 24.7,
    "estimated_diameter": {
        "kilometers": {
            "estimated_diameter_min": 0.0305179233,
            "estimated_diameter_max": 0.0682401509
        },
        "meters": {
            "estimated_diameter_min": 30.5179232594,
            "estimated_diameter_max": 68.2401509401
        },
        "miles": {
            "estimated_diameter_min": 0.0189629525,
            "estimated_diameter_max": 0.0424024508
        },
        "feet": {
            "estimated_diameter_min": 100.1244233463,
            "estimated_diameter_max": 223.8850168104
        }
    },
    "is_potentially_hazardous_asteroid": false,
    "close_approach_data": [
        {
            "close_approach_date": "2019-10-20",
            "close_approach_date_full": "2019-Oct-20 01:17",
            "epoch_date_close_approach": 1571534220000,
            "relative_velocity": {
                "kilometers_per_second": "15.0027069191",
                "kilometers_per_hour": "54009.7449088745",
                "miles_per_hour": "33559.5551074059"
            },
            "miss_distance": {
                "astronomical": "0.0928539095",
                "lunar": "36.1201707955",
                "kilometers": "13890747.082372765",
                "miles": "8631309.997823557"
            },
            "orbiting_body": "Earth"
        }
    ],
    "orbital_data": {
        "orbit_id": "1",
        "orbit_determination_date": "2019-10-24 09:42:03",
        "first_observation_date": "2019-10-22",
        "last_observation_date": "2019-10-24",
        "data_arc_in_days": 2,
        "observations_used": 17,
        "orbit_uncertainty": "9",
        "minimum_orbit_intersection": ".0815409",
        "jupiter_tisserand_invariant": "4.901",
        "epoch_osculation": "2458779.5",
        "eccentricity": ".1685085319159075",
        "semi_major_axis": "1.288440247296323",
        "inclination": "28.47600326044724",
        "ascending_node_longitude": "27.97832243963661",
        "orbital_period": "534.1888890999088",
        "perihelion_distance": "1.071327072763051",
        "perihelion_argument": "343.7877046044003",
        "aphelion_distance": "1.505553421829596",
        "perihelion_time": "2458759.015403867708",
        "mean_anomaly": "13.80495693208977",
        "mean_motion": ".673918921463508",
        "equinox": "J2000",
        "orbit_class": {
            "orbit_class_type": "AMO",
            "orbit_class_description": "Near-Earth asteroid orbits similar to that of 1221 Amor",
            "orbit_class_range": "1.017 AU < q (perihelion) < 1.3 AU"
        }
    },
    "is_sentry_object": false
}